[{"city": "Nashville", "zip": "37015", "number": 29, "state": "TN", "location": ["-86.89340839199969", "36.25919874800047"], "address": "5911 Old Hickory Blvd"},][{"city": "Nashville", "zip": "37218", "number": 30, "state": "TN", "location": ["-86.92006792199965", "36.15383954400045"], "address": "4187 Old Hickory Blvd"},][{"city": "Nashville", "zip": "37207", "number": 33, "state": "TN", "location": ["-86.76125047199969", "36.18821048200044"], "address": "610 Vernon Winfrey Avenue"},][{"city": "Nashville", "zip": "37211", "number": 1, "state": "TN", "location": ["-86.74351773099966", "36.11087753600049"], "address": "384 Thompson Lane"},][{"city": "Nashville", "zip": "37215", "number": 21, "state": "TN", "location": ["-86.815571", "36.104693"], "address": "4009 Hillsboro Pike"},][{"city": "Madison", "zip": "37115", "number": 18, "state": "TN", "location": ["-86.72431489799965", "36.26427160300045"], "address": "501 Heritage Dr."},][{"city": "Nashville", "zip": "37203", "number": 39, "state": "TN", "location": ["-86.783224", "36.143275"], "address": "1000 Edgehill Avenue"},][{"city": "Nashville", "zip": "37206", "number": 3, "state": "TN", "location": ["-86.76034108399966", "36.17349490100048"], "address": "700 Woodland Street"},][{"city": "Nashville", "zip": "37207", "number": 10, "state": "TN", "location": ["-86.74792254999966", "36.20450274300049"], "address": "936 E. Trinity Lane"},][{"city": "Nashville", "zip": "37208", "number": 2, "state": "TN", "location": ["-86.82052199599968", "36.166805156000464"], "address": "1037 28th Avenue, North"},][{"city": "Hermitage", "zip": "37076", "number": 40, "state": "TN", "location": ["-86.6166172079996", "36.1775789970005"], "address": "3720 James Kay Lane"},][{"city": "Hermitage", "zip": "37076", "number": 5, "state": "TN", "location": ["-86.61661720799964", "36.17757899700047"], "address": "3701 James Kay Lane"},][{"city": "Nashville", "zip": "37201", "number": 4, "state": "TN", "location": ["-86.77871838299967", "36.167454412000495"], "address": "1 Public Square"},][{"city": "Nashvillle", "zip": "37210", "number": 13, "state": "TN", "location": ["-86.76993480199968", "36.15382778000048"], "address": "700 Second Avenue, South"},][{"city": "Nashville", "zip": "37201", "number": 11, "state": "TN", "location": ["-86.77888420099964", "36.168067936000455"], "address": "408 Second Avenue, North"},][{"city": "Nashville", "zip": "37206", "number": 34, "state": "TN", "location": ["-86.75867423599965", "36.18214510500047"], "address": "620 South 9th Street"},][{"city": "Nashville", "zip": "37210", "number": 16, "state": "TN", "location": ["-86.76993480199968", "36.15382778000048"], "address": "730 Second Avenue South"},][{"city": "Madison", "zip": "37115", "number": 8, "state": "TN", "location": ["-86.68959416899969", "36.27219256900048"], "address": "400 Myatt Drive"},][{"city": "Nashville", "zip": "37207", "number": 31, "state": "TN", "location": ["-86.76793598799969", "36.181098302000464"], "address": "315 Berry Street"},][{"city": "Nashville", "zip": "37210", "number": 12, "state": "TN", "location": ["-86.76948805299969", "36.15315698800049"], "address": "800 Second Avenue, South"},][{"city": "Nashville", "zip": "37217", "number": 43, "state": "TN", "location": ["-86.6914436", "36.1139258"], "address": "1417 Murfreesboro Pike"},][{"city": "Nashville", "zip": "37203", "number": 37, "state": "TN", "location": ["-86.78840195399965", "36.137011379000455"], "address": "1443 12th Avenue South"},][{"city": "Nashville", "zip": "37208", "number": 35, "state": "TN", "location": ["-86.79097269499965", "36.18075660600044"], "address": "411 Hume Street"},][{"city": "Nashville", "zip": "37208", "number": 6, "state": "TN", "location": ["-86.81852046599965", "36.18807379800046"], "address": "2231 26th Avenue, North"},][{"city": "Old Hickory", "zip": "37138", "number": 41, "state": "TN", "location": ["-86.649685", "36.264973"], "address": "1050 Donelson Drive"},][{"city": "Nashville", "zip": "37207", "number": 19, "state": "TN", "location": ["-86.77276317199966", "36.23548334400044"], "address": "3220 Vailview Dr."},][{"city": "Nashville", "zip": "37203", "number": 38, "state": "TN", "location": ["-86.80885265199964", "36.14674585600045"], "address": "2500 West End Ave"},][{"city": "Nashville", "zip": "37212", "number": 24, "state": "TN", "location": ["-86.78732730799965", "36.11836146200045"], "address": "3021 Lealand Ln"},][{"city": "Nashville", "zip": "37206", "number": 27, "state": "TN", "location": ["-86.73559461499968", "36.164616288000445"], "address": "1900 Davidson St."},][{"city": "Nashville", "zip": "37216", "number": 32, "state": "TN", "location": ["-86.72698789699967", "36.196465240000464"], "address": "1625 Rebecca Street"},][{"city": "Nashville", "zip": "37211", "number": 7, "state": "TN", "location": ["-86.68839947699968", "36.08966795400045"], "address": "5101 Harding Place"},][{"city": "Nashville", "zip": "37221", "number": 22, "state": "TN", "location": ["-86.90605199599969", "36.06181511700049"], "address": "7311 Highway 100"},][{"city": "Nashville", "zip": "37208", "number": 14, "state": "TN", "location": ["-86.79002908199965", "36.183385332000455"], "address": "1700 Third Avenue, North"},][{"city": "Nashville", "zip": "37203", "number": 42, "state": "TN", "location": ["-86.8001923", "36.1617676"], "address": "616 17th Avenue North"},][{"city": "Nashville", "zip": "37209", "number": 36, "state": "TN", "location": ["-86.86282288699965", "36.16328681800047"], "address": "6105 Morrow Road"},][{"city": "Nashville", "zip": "37209", "number": 9, "state": "TN", "location": ["-86.85531770299968", "36.15082767000047"], "address": "5500 Charlotte Pike"},]